{
  "type": "FeatureCollection",
  "features": [
    {
      "type": "Feature",
      "properties": {
        "norad_id": 37975,
        "name": "COSMOS 2251 DEB",
        "group": "cosmos-2251-debris",
        "lat": 6.348509917505245,
        "lon": 160.05002195716244,
        "alt_km": 710.5857645236911,
        "timestamp": "2025-12-03T15:48:03.463849+00:00",
        "meta_object_name": "COSMOS 2251 DEB",
        "meta_object_id": "1993-036BQA",
        "meta_epoch": "2025-11-29T10:05:48.736608",
        "meta_mean_motion": 14.74991313,
        "meta_eccentricity": 0.00977788,
        "meta_inclination": 74.0026,
        "meta_ra_of_asc_node": 350.1763,
        "meta_arg_of_pericenter": 342.2584,
        "meta_mean_anomaly": 17.5181,
        "meta_ephemeris_type": 0,
        "meta_classification_type": "U",
        "meta_norad_cat_id": 37975,
        "meta_element_set_no": 999,
        "meta_rev_at_epoch": 69549,
        "meta_bstar": 0.0028756754,
        "meta_mean_motion_dot": 0.00020929,
        "meta_mean_motion_ddot": 0,
        "tle_line1": "1 37975U 93036BQA 25333.42070297  .00020929  00000+0  28757-2 0  9991",
        "tle_line2": "2 37975  74.0026 350.1763 0097778 342.2584  17.5181 14.74991313695491"
      },
      "geometry": {
        "type": "Point",
        "coordinates": [
          160.05002195716244,
          6.348509917505245
        ]
      }
    },
    {
      "type": "Feature",
      "properties": {
        "norad_id": 37978,
        "name": "COSMOS 2251 DEB",
        "group": "cosmos-2251-debris",
        "lat": 63.59884662128017,
        "lon": -105.51967150577865,
        "alt_km": 328.2765440514031,
        "timestamp": "2025-12-03T15:48:03.463858+00:00",
        "meta_object_name": "COSMOS 2251 DEB",
        "meta_object_id": "1993-036BQD",
        "meta_epoch": "2025-11-19T05:08:53.100672",
        "meta_mean_motion": 15.61137081,
        "meta_eccentricity": 0.00148985,
        "meta_inclination": 74.0238,
        "meta_ra_of_asc_node": 142.2198,
        "meta_arg_of_pericenter": 140.9849,
        "meta_mean_anomaly": 219.2448,
        "meta_ephemeris_type": 0,
        "meta_classification_type": "U",
        "meta_norad_cat_id": 37978,
        "meta_element_set_no": 999,
        "meta_rev_at_epoch": 8032,
        "meta_bstar": 0.0043958825,
        "meta_mean_motion_dot": 0.0039117,
        "meta_mean_motion_ddot": 0,
        "tle_line1": "1 37978U 93036BQD 25323.21450348  .00391170  00000+0  43959-2 0  9999",
        "tle_line2": "2 37978  74.0238 142.2198 0014898 140.9849 219.2448 15.61137081 80328"
      },
      "geometry": {
        "type": "Point",
        "coordinates": [
          -105.51967150577865,
          63.59884662128017
        ]
      }
    },
    {
      "type": "Feature",
      "properties": {
        "norad_id": 37985,
        "name": "COSMOS 2251 DEB",
        "group": "cosmos-2251-debris",
        "lat": 61.19142027276491,
        "lon": 71.01582691259085,
        "alt_km": 761.2102734479467,
        "timestamp": "2025-12-03T15:48:03.463868+00:00",
        "meta_object_name": "COSMOS 2251 DEB",
        "meta_object_id": "1993-036BQL",
        "meta_epoch": "2025-11-30T03:38:35.089728",
        "meta_mean_motion": 14.35476198,
        "meta_eccentricity": 0.00203975,
        "meta_inclination": 74.025,
        "meta_ra_of_asc_node": 288.8408,
        "meta_arg_of_pericenter": 55.5438,
        "meta_mean_anomaly": 304.7638,
        "meta_ephemeris_type": 0,
        "meta_classification_type": "U",
        "meta_norad_cat_id": 37985,
        "meta_element_set_no": 999,
        "meta_rev_at_epoch": 64736,
        "meta_bstar": 6.4630742e-05,
        "meta_mean_motion_dot": 1.6e-06,
        "meta_mean_motion_ddot": 0,
        "tle_line1": "1 37985U 93036BQL 25334.15179502  .00000160  00000+0  64631-4 0  9990",
        "tle_line2": "2 37985  74.0250 288.8408 0020397  55.5438 304.7638 14.35476198647366"
      },
      "geometry": {
        "type": "Point",
        "coordinates": [
          71.01582691259085,
          61.19142027276491
        ]
      }
    },
    {
      "type": "Feature",
      "properties": {
        "norad_id": 37988,
        "name": "COSMOS 2251 DEB",
        "group": "cosmos-2251-debris",
        "lat": 66.38252598448298,
        "lon": -179.2329803003515,
        "alt_km": 618.0194822734284,
        "timestamp": "2025-12-03T15:48:03.463877+00:00",
        "meta_object_name": "COSMOS 2251 DEB",
        "meta_object_id": "1993-036BQP",
        "meta_epoch": "2025-12-03T03:52:26.915232",
        "meta_mean_motion": 14.6871152,
        "meta_eccentricity": 0.00633297,
        "meta_inclination": 74.0639,
        "meta_ra_of_asc_node": 42.5299,
        "meta_arg_of_pericenter": 83.2274,
        "meta_mean_anomaly": 277.6097,
        "meta_ephemeris_type": 0,
        "meta_classification_type": "U",
        "meta_norad_cat_id": 37988,
        "meta_element_set_no": 999,
        "meta_rev_at_epoch": 23255,
        "meta_bstar": 0.0011291446,
        "meta_mean_motion_dot": 6.755e-05,
        "meta_mean_motion_ddot": 0,
        "tle_line1": "1 37988U 93036BQP 25337.16142263  .00006755  00000+0  11291-2 0  9999",
        "tle_line2": "2 37988  74.0639  42.5299 0063329  83.2274 277.6097 14.68711520232556"
      },
      "geometry": {
        "type": "Point",
        "coordinates": [
          -179.2329803003515,
          66.38252598448298
        ]
      }
    },
    {
      "type": "Feature",
      "properties": {
        "norad_id": 37993,
        "name": "COSMOS 2251 DEB",
        "group": "cosmos-2251-debris",
        "lat": 2.3200768460214083,
        "lon": 3.5887623357224214,
        "alt_km": 697.9753562362739,
        "timestamp": "2025-12-03T15:48:03.463886+00:00",
        "meta_object_name": "COSMOS 2251 DEB",
        "meta_object_id": "1993-036BQU",
        "meta_epoch": "2025-12-01T21:52:04.124640",
        "meta_mean_motion": 14.59713379,
        "meta_eccentricity": 0.0022073,
        "meta_inclination": 74.0242,
        "meta_ra_of_asc_node": 187.5873,
        "meta_arg_of_pericenter": 277.3102,
        "meta_mean_anomaly": 82.5554,
        "meta_ephemeris_type": 0,
        "meta_classification_type": "U",
        "meta_norad_cat_id": 37993,
        "meta_element_set_no": 999,
        "meta_rev_at_epoch": 65159,
        "meta_bstar": 0.0013360965,
        "meta_mean_motion_dot": 6.369e-05,
        "meta_mean_motion_ddot": 0,
        "tle_line1": "1 37993U 93036BQU 25335.91115885  .00006369  00000+0  13361-2 0  9997",
        "tle_line2": "2 37993  74.0242 187.5873 0022073 277.3102  82.5554 14.59713379651591"
      },
      "geometry": {
        "type": "Point",
        "coordinates": [
          3.5887623357224214,
          2.3200768460214083
        ]
      }
    },
    {
      "type": "Feature",
      "properties": {
        "norad_id": 37994,
        "name": "COSMOS 2251 DEB",
        "group": "cosmos-2251-debris",
        "lat": -24.73552334064673,
        "lon": 120.0363221663285,
        "alt_km": 780.7716093342533,
        "timestamp": "2025-12-03T15:48:03.463895+00:00",
        "meta_object_name": "COSMOS 2251 DEB",
        "meta_object_id": "1993-036BQV",
        "meta_epoch": "2025-12-03T06:30:34.271136",
        "meta_mean_motion": 14.39585493,
        "meta_eccentricity": 0.00224786,
        "meta_inclination": 74.0358,
        "meta_ra_of_asc_node": 293.1728,
        "meta_arg_of_pericenter": 14.5973,
        "meta_mean_anomaly": 345.5826,
        "meta_ephemeris_type": 0,
        "meta_classification_type": "U",
        "meta_norad_cat_id": 37994,
        "meta_element_set_no": 999,
        "meta_rev_at_epoch": 76928,
        "meta_bstar": 0.00056190338,
        "meta_mean_motion_dot": 1.734e-05,
        "meta_mean_motion_ddot": 0,
        "tle_line1": "1 37994U 93036BQV 25337.27122999  .00001734  00000+0  56190-3 0  9992",
        "tle_line2": "2 37994  74.0358 293.1728 0022478  14.5973 345.5826 14.39585493769281"
      },
      "geometry": {
        "type": "Point",
        "coordinates": [
          120.0363221663285,
          -24.73552334064673
        ]
      }
    },
    {
      "type": "Feature",
      "properties": {
        "norad_id": 37996,
        "name": "COSMOS 2251 DEB",
        "group": "cosmos-2251-debris",
        "lat": -11.68371343834858,
        "lon": -144.21954343768294,
        "alt_km": 708.6263444201049,
        "timestamp": "2025-12-03T15:48:03.463904+00:00",
        "meta_object_name": "COSMOS 2251 DEB",
        "meta_object_id": "1993-036BQX",
        "meta_epoch": "2025-11-16T18:35:00.708864",
        "meta_mean_motion": 14.09591608,
        "meta_eccentricity": 0.02219827,
        "meta_inclination": 74.0658,
        "meta_ra_of_asc_node": 248.8308,
        "meta_arg_of_pericenter": 5.4709,
        "meta_mean_anomaly": 354.8776,
        "meta_ephemeris_type": 0,
        "meta_classification_type": "U",
        "meta_norad_cat_id": 37996,
        "meta_element_set_no": 999,
        "meta_rev_at_epoch": 55769,
        "meta_bstar": 0.0096790999,
        "meta_mean_motion_dot": 0.00021331,
        "meta_mean_motion_ddot": 0,
        "tle_line1": "1 37996U 93036BQX 25320.77431376  .00021331  00000+0  96791-2 0  9998",
        "tle_line2": "2 37996  74.0658 248.8308 0221982   5.4709 354.8776 14.09591608557693"
      },
      "geometry": {
        "type": "Point",
        "coordinates": [
          -144.21954343768294,
          -11.68371343834858
        ]
      }
    }
  ]
}